Name,Info,Address,Category,Latitude,Longitude
Nad Paan,,Potnis parisar shop no 3,,,
Shaukin Paan ,,Nal Stop Chowk,Paan,,
Ganesh Bhel,,Karvenagar,Bhel,,
Café Durga Karve Nagar,Café Durga is a leading food service retailer in Pune ,Amrapali Shop no -1 & 2 Shahu Colony,,,
Café Durga MIT,Café Durga is a leading food service retailer in Pune,Dhavalgiri,,,
Café Durga JM Road,Café Durga is a leading food service retailer in Pune,Modern Colony Signal,,,
Café Durga Mayur Colony,Café Durga is a leading food service retailer in Pune,Shop No -2,,,
Café Durga Bharati Vidyapeeth,Café Durga is a leading food service retailer in Pune,Bharati Vihar Society,,,
Café Durga SP College,Café Durga is a leading food service retailer in Pune,Shop No - 9,,,
Café Durga Sinhgad Road,Café Durga is a leading food service retailer in Pune,Mohite Twin Towar,,,
Café Durga Narhe,Café Durga is a leading food service retailer in Pune,Back Gate of Sinhgad,,,
Kalyan Bhel Law College ,,Canal Road,,,
Kalyan Bhel Kondhwa,,Gera Junction,,,
Kalyan Bhel Bibwewadi,,Saniya Heritage,,,
Mankar Dosa karve Nagar,,Bharat Kunj Society No1,,,
Mankar Dosa Satara Road,,Tirupati Complex,,,
Mankar Dosa Sinhgad Road,,Shop No 8 Mohite Twin Tower,,,
Mankar Dosa Kothrud,,Runwal Sankalp Shop No 9 Gananjay Society,,,
Mankar Dosa Paud Road,,"Sr. No. 94/28 Mankar Dosa Tilak Road ,Mangalmurti apartment Near hirabag ganpati Tilak Rd Shukrawar Peth",Dosa South Indian,,
Baskin Robbin,,Shop No 2 North Main Rd Koregaon Park,Ice Cream,,
Baskin Robbin,,Shop No 18 Building C 3 Bramha Majestic,,,
Baskin Robbin,,Opp TVS Showroom,,,
Baskin Robbin,,Kamla Arcade,,,
Baskin Robbin,,Shop No 3 Akash Apartment,,,
Baskin Robbin,,3RD FLR Food Court Kumar Pacific Mall,,,
Baskin Robbin,,Konark Arcade Shop No 1,,,
Baskin Robbin,,Shop No 24 Parmar Square,,,
Baskin Robbin,,Shop No 3 B Mohite Township,,,
Fantacy Juice world,,Camp ,,,
Khaman Dhokala,,Karvenagar,Dhokla,,
Kadhai,,F C Road,Rabdi Jalebi,,
Kadhai,,Aundh,Rabdi Jalebi,,
Deccan kachhi dabeli,,Deccan ,,,
Café Goodluck,,"Goodluck Chowk Near Sagar Arcade, FC road",Bun Maska,,
Café Paradise,,Garware Collegge,Bun Maska,,
Harsh Cold coffee,,Kothrud Near Durga Coffee,Cold Coffee,,
BABA Cold coffee,,Nr Bharati vidyapith,Cold Coffee,,
Khatri Ice cream R,,Rajaram bridge,Ice Cream,,
Khatri Ice cream S,,National park Sinhagad Road,Ice Cream,,
Kattakir Karvenagar,,Cummins College karvenagar,Misal,,
Kattakir Garware,,Opp Garaware college,Misal,,
Bansi panipuri,,"Dhanakawadi, Nr Bharati vidyapith",PaniPuri,,
Richirich,,Bharati vidyapith,Cold Beverage,,
Richirich,,MIT collage,Cold Beverage,,
MOMOS,,DC magarpatta,Momos,,
MOMOS,," Koregao park, lane 6",Momos,,
Ramakant Misal,,Tilak Road,Misal,,
kailaash Bhel,,Khed Shivapur,Misal,,
Momos,,"S.R.P.F Gym ,Wanwadi ,Near Kedari Petrol Pump",,,
Swikar snaks,,Kothrud ,Snacks,,
Flavours,,FC Road ,Sandwitch,,
Maggi Point,,Law College Road,,,
Coffee Stop ,,Deep Bunglow Chawk near  SB road,Cold Beverage,,
Aunty's Chai,,ITC Tower SB Road,Chai,,
Rajma Chawal,,"BVP Back Market ,Katraj",Rajma Chawal,,
Relax,,,Pavbhaji and Pulav,,
Juice world ,,MG,Pavbhaji and Pulav,,
Jayashri,,,Pavbhaji and Pulav,,
Cad B,,Kothrud,CAD- B,,
Fantasy,,,Juice,,
Vohuman Café,,,Bun Omlete,,
Tilak,,Tilak Road,Tea Pattice,,
Supreme,,J M Road ,Pavbhaji and Pulav,,
Santosh Bakery,,Apte Road ,Veg Puff and Bakery Items,,
Jabreshwar Bhuvan,,"Near Bharat Natya Mandir, Tilak Road, Pun",Taa and Bakery Items,,
IBM Dosa Centre,,"Near IBM, Yerwada",Dosa South Indian,,
Reshma Pav bhurji centre,,"BMCC /MMCC road, deccan, Pune",Pavbhaji and Pulav,,
Tasty tongues,,"Baner Pashan Road, Chandani Chowk, Pune",Delhi Chaat,,
Old Waadeshwar Bhuvan,,"Bajirao road, Pune",South Indian ,,
Tea Stall,,Kharadi,Tea,,
tiffinee,,BVP Back Market Katraj ,Egg rice,,
Siddhivinayak,,"BVP Back market, Katraj",Vada Pav,,
Panipuri Big Bazar,,Big Bazaar Fatima Nagar,PaniPuri,,
Manisha Bhel,,"Near Tathavade Udyan, Karve Nagar, Pune",Pani Puri,,
Khatri,"Ice cream made in wooden pot, Mastani with real fruits","Shivaji statue, kothrud",Ice Cream,,
Kapila kati kabab,,D P Road ,Kati Kabab,,
Just Bake ,,D P Road ,Bakery Items,,
Chaitanya,,FC road,Paratha,,
Chaitanya,,Paud road,Paratha,,
New Poona Bakery,,,,,
Bedekar,,,,,
Purepure Kolhapur,,"Near Mehendale Garage, Peru Gate Police Chowky",Kolhapuri meal ,,
Ganesh Snack Center,,"Paud Road ,MIT",Dosa South Indian,,
Kushaba Snacks,,"Vidyalai Chowk ,Paud Road ",Pav Bhaji and Pulav,,
Prasanna,,Paud Road near Krishna hospital,Bakery,,
Madhur,,"near Durga café, paud road",Ras malai,,
Vishal,,near MIT pune  ,Pav Bhaji and Pulav,,
Roll House ,,,Rolls,,
Kala,,"Rastha Peth ,Near KEM hospital",,,
Amrututalya,,Near Kumthekar road or perugate police station,,,
Tupe ,,Gadital only,Tea,,
Hindawi Swarajya,,JM road opposite JM samadhi,Sabudana Wada,,
Burger King ,,Pulgate,,,
Casalolo,,kamala Nehru Park,Basundhi Chaha,,
Funtoons,,Kamla Nehru Park,Shawarma,,
,,Deep Bunglow Chowk ,Rolls,,
Triveni,,F C Road ,Tea,,
Niranjan,,F C Road Pune,Pohe,,
Appachi Khichadi,,Deccan Gymkhana Gate,Sabudana Khichadi,,
Kapila,,Dhole Patil Road,Kathi Kebab,,
Marzorin ,,M G Road ,Sandwitch,,
Supreme Cornor,,,Pav Bhaji and Pulav,,
Sathe Wadewale ,,Deep Bunglow Chowk ,Dal Wada,,
Sujata,,Sadashiv Peth,Mastani,,
Sujata,,Karve Putala,Mastani,,
Mathura,,J M Road ,Kothimbir Wadi,,
Shailesh Rsavanti Gruha,,S P College,Sugarcane Juice,,
Aishwarya,,In Front of commins diesel factory,Pohe,,
Josyhi Sweets ,,Near shamrao kalmadi school,Samosa,,
Roll Delight,,Nr Bharati vidyapith,Misc,,
Vikram Dairy,,Wagholi,Misc,,
Kailas dairy,,opp Kaka Halwai Mandai pune,Misc,,
Cum sum,,Pune Station,Misc,,
Narayan Khaman Dokla,,Balaji nagar satara road,Misc,,
Navnath Kachi Dabeli,,Hadapsar near Rajashree electronic,Misc,,
Vrundavan Kulfi,,Z Bridge,Misc,,
Kalyan Bhel-Kondhwa,,Gera junction kondhwa,Bhel N Chat,,
Kalyan Bhel-Bibewadi,,Bibewadi,Bhel N Chat,,
Sudama Bhel-Ishanya Mall,,Ishanya Mall,Bhel N Chat,,
Sudama Bhel- Chandan Nagar, ,Chandan Nagar,Bhel N chat,,
Swad Bhel,,B T Kawade Road ,Bhel N Chat,,
Mankar Dosa ,,aadinath Society Satara road ,Dosa South Indian,,
Sarvoday,,Chandan nagar,Dosa South Indian,,
Rupali,,F C  road,Dosa South Indian,,
Vaishali,,F C  road,Dosa South Indian,,
Dakshin Davangiri Dosa-FC Road,,F C Road,Dosa South Indian,,
Dakshin Davangiri Dosa-B T Kawade Road,,B T Kawade Road,Dosa South Indian,,
S kumar wada pav-Hadapsar,,Sadhna vidyalay Hadapsar,Wada Pav,,
Dahi wada ,,Adinath Society Satara road,Wada Pav,,
Nagesh wada,,Sinhgad kondhwa,Wada Pav,,
Samartha Snack,,Chandan nagar,Wada Pav,,
Vadewale Joshi,,Shastri Road,Wada Pav,,
Manasi,,Satara Road,Cold Cofffee,,
Sujata Mastani,,Bibewadi,Cold Cofffee,,
Gujar mastani,,city pride Satara road,Cold Cofffee,,
Katakir,,Kothrud,Misal,,
Ramnath,,Tilak Road,Misal,,
Rajusheth Misalwale,,Vishrantwadi,Misal,,
Shri Misal,,Sadashiv Peth,Misal,,
Wadki misal stop,,starting of diveghat from Pune side,Misal,,
Narmadeshwar,,Sadashiv Peth,Tea Stalls,,
Vaijnath Amruttulya,,Kumthekar Road,Tea Stalls,,
Swami,,Tilak Road,Tea Stalls,,
Vaijanath,,Dange Chowk,Tea Stalls,,
Abu Nisal,,Lakshmi Road,Tea Stalls,,
Tupe tea stall,,Gadital ,Tea Stalls,,
Chandeshwar,,peru gate police station Sadashiv peth ,Tea Stalls,,
Shiv Kailas dairy,,Pune Station,Tea Stalls,,
Trupti Chaha,,dyaneshwar Paduka chowk ,Tea Stalls,,
Pappu Pan,,Bibwewadi( Market Yard Road),Pan Shops,,
Poonam Pan,,J M Road,Pan Shops,,
Ganesh Pan,,F C Road,Pan Shops,,
Shoowkin Pan,,Kothrud(Nal Stop),Pan Shops,,
Navkar Pan,,Bajirao Road,Pan Shops,,
Khaibar Pan,,F C Road,Pan Shops,,

